[{"OBJECT_NAME":"STARLINK-5628","OBJECT_ID":"2023-015T","EPOCH":"2026-03-09T09:32:08.880000","MEAN_MOTION":15.02533041,"ECCENTRICITY":0.00014187,"INCLINATION":43.0067,"RA_OF_ASC_NODE":327.264,"ARG_OF_PERICENTER":267.1501,"MEAN_ANOMALY":92.9179,"EPHEMERIS_TYPE":0,"CLASSIFICATION_TYPE":"U","NORAD_CAT_ID":55466,"ELEMENT_SET_NO":999,"REV_AT_EPOCH":17071,"BSTAR":-1.7660136e-5,"MEAN_MOTION_DOT":-4.42e-6,"MEAN_MOTION_DDOT":0},{"OBJECT_NAME":"STARLING 4","OBJECT_ID":"2023-100A","EPOCH":"2026-03-07T00:40:50.723040","MEAN_MOTION":15.06148396,"ECCENTRICITY":0.00078037,"INCLINATION":99.5115,"RA_OF_ASC_NODE":59.9711,"ARG_OF_PERICENTER":83.0949,"MEAN_ANOMALY":277.1159,"EPHEMERIS_TYPE":0,"CLASSIFICATION_TYPE":"U","NORAD_CAT_ID":57386,"ELEMENT_SET_NO":999,"REV_AT_EPOCH":14452,"BSTAR":5.567556e-6,"MEAN_MOTION_DOT":-9.0e-8,"MEAN_MOTION_DDOT":0}]
